{
 "generated_at": "2026-07-07T08:23:21Z",
 "sources": [
  {
   "name": "CelesTrak",
   "url": "https://celestrak.org/NORAD/elements/",
   "license": "frei verfügbar; Attribution. Ursprünglich USSPACECOM/Space-Track."
  },
  {
   "name": "GCAT (J. McDowell, planet4589.org)",
   "url": "https://planet4589.org/space/gcat/",
   "license": "CC-BY 4.0"
  }
 ],
 "satellites": [
  {
   "norad": 43226,
   "name": "GOES 17",
   "intl": "2018-022A",
   "group": "weather",
   "gcat": {
    "class": "C",
    "category": "MET",
    "owner": "NOAA",
    "state": "US"
   },
   "omm": {
    "OBJECT_NAME": "GOES 17",
    "OBJECT_ID": "2018-022A",
    "EPOCH": "2026-07-06T20:12:40.019040",
    "MEAN_MOTION": 1.00272044,
    "ECCENTRICITY": 0.0000618,
    "INCLINATION": 0.984,
    "RA_OF_ASC_NODE": 85.399,
    "ARG_OF_PERICENTER": 57.0032,
    "MEAN_ANOMALY": 356.0886,
    "EPHEMERIS_TYPE": 0,
    "CLASSIFICATION_TYPE": "U",
    "NORAD_CAT_ID": 43226,
    "ELEMENT_SET_NO": 999,
    "REV_AT_EPOCH": 3062,
    "BSTAR": 0,
    "MEAN_MOTION_DOT": -0.00000168,
    "MEAN_MOTION_DDOT": 0
   }
  },
  {
   "norad": 51850,
   "name": "GOES 18",
   "intl": "2022-021A",
   "group": "weather",
   "gcat": {
    "class": "C",
    "category": "MET",
    "owner": "NOAA",
    "state": "US"
   },
   "omm": {
    "OBJECT_NAME": "GOES 18",
    "OBJECT_ID": "2022-021A",
    "EPOCH": "2026-07-06T18:16:33.668256",
    "MEAN_MOTION": 1.00271149,
    "ECCENTRICITY": 0.0000524,
    "INCLINATION": 0.0184,
    "RA_OF_ASC_NODE": 202.6762,
    "ARG_OF_PERICENTER": 322.8576,
    "MEAN_ANOMALY": 256.3374,
    "EPHEMERIS_TYPE": 0,
    "CLASSIFICATION_TYPE": "U",
    "NORAD_CAT_ID": 51850,
    "ELEMENT_SET_NO": 999,
    "REV_AT_EPOCH": 678,
    "BSTAR": 0,
    "MEAN_MOTION_DOT": 0.00000112,
    "MEAN_MOTION_DDOT": 0
   }
  },
  {
   "norad": 60133,
   "name": "GOES 19",
   "intl": "2024-119A",
   "group": "weather",
   "gcat": {
    "class": "C",
    "category": "MET",
    "owner": "NOAA",
    "state": "US"
   },
   "omm": {
    "OBJECT_NAME": "GOES 19",
    "OBJECT_ID": "2024-119A",
    "EPOCH": "2026-07-06T18:34:09.479712",
    "MEAN_MOTION": 1.00272104,
    "ECCENTRICITY": 0.0000443,
    "INCLINATION": 0.0333,
    "RA_OF_ASC_NODE": 203.432,
    "ARG_OF_PERICENTER": 335.5407,
    "MEAN_ANOMALY": 309.1245,
    "EPHEMERIS_TYPE": 0,
    "CLASSIFICATION_TYPE": "U",
    "NORAD_CAT_ID": 60133,
    "ELEMENT_SET_NO": 999,
    "REV_AT_EPOCH": 716,
    "BSTAR": 0,
    "MEAN_MOTION_DOT": -0.00000233,
    "MEAN_MOTION_DDOT": 0
   }
  },
  {
   "norad": 41875,
   "name": "GOKTURK 1A",
   "intl": "2016-073A",
   "group": "resource",
   "gcat": {
    "class": "D",
    "category": "IMG",
    "owner": "MSBTR",
    "state": "TR"
   },
   "omm": {
    "OBJECT_NAME": "GOKTURK 1A",
    "OBJECT_ID": "2016-073A",
    "EPOCH": "2026-07-06T21:03:44.019648",
    "MEAN_MOTION": 14.62790083,
    "ECCENTRICITY": 0.0001418,
    "INCLINATION": 98.1221,
    "RA_OF_ASC_NODE": 82.2411,
    "ARG_OF_PERICENTER": 79.2761,
    "MEAN_ANOMALY": 280.8601,
    "EPHEMERIS_TYPE": 0,
    "CLASSIFICATION_TYPE": "U",
    "NORAD_CAT_ID": 41875,
    "ELEMENT_SET_NO": 999,
    "REV_AT_EPOCH": 51170,
    "BSTAR": 0.0001129,
    "MEAN_MOTION_DOT": 0.00000529,
    "MEAN_MOTION_DDOT": 0
   }
  },
  {
   "norad": 39030,
   "name": "GOKTURK 2",
   "intl": "2012-073A",
   "group": "resource",
   "gcat": {
    "class": "D",
    "category": "IMG",
    "owner": "MSBTR",
    "state": "TR"
   },
   "omm": {
    "OBJECT_NAME": "GOKTURK 2",
    "OBJECT_ID": "2012-073A",
    "EPOCH": "2026-07-06T19:32:31.655328",
    "MEAN_MOTION": 14.75563783,
    "ECCENTRICITY": 0.0000945,
    "INCLINATION": 97.6814,
    "RA_OF_ASC_NODE": 24.2611,
    "ARG_OF_PERICENTER": 69.6135,
    "MEAN_ANOMALY": 290.5176,
    "EPHEMERIS_TYPE": 0,
    "CLASSIFICATION_TYPE": "U",
    "NORAD_CAT_ID": 39030,
    "ELEMENT_SET_NO": 999,
    "REV_AT_EPOCH": 72740,
    "BSTAR": 0.000091496,
    "MEAN_MOTION_DOT": 0.00000576,
    "MEAN_MOTION_DDOT": 0
   }
  },
  {
   "norad": 33492,
   "name": "GOSAT (IBUKI)",
   "intl": "2009-002A",
   "group": "resource",
   "gcat": {
    "class": "C",
    "category": "EOSCI",
    "owner": "JAXA",
    "state": "J"
   },
   "omm": {
    "OBJECT_NAME": "GOSAT (IBUKI)",
    "OBJECT_ID": "2009-002A",
    "EPOCH": "2026-07-06T20:13:55.441056",
    "MEAN_MOTION": 14.67538068,
    "ECCENTRICITY": 0.0001165,
    "INCLINATION": 98.0909,
    "RA_OF_ASC_NODE": 298.6798,
    "ARG_OF_PERICENTER": 81.5812,
    "MEAN_ANOMALY": 278.5524,
    "EPHEMERIS_TYPE": 0,
    "CLASSIFICATION_TYPE": "U",
    "NORAD_CAT_ID": 33492,
    "ELEMENT_SET_NO": 999,
    "REV_AT_EPOCH": 93434,
    "BSTAR": 0.0000276,
    "MEAN_MOTION_DOT": 0.00000108,
    "MEAN_MOTION_DDOT": 0
   }
  },
  {
   "norad": 64694,
   "name": "GOSAT-GW (IBUKI GW)",
   "intl": "2025-141A",
   "group": "resource",
   "gcat": {
    "class": "C",
    "category": "EOSCI",
    "owner": "JAXA",
    "state": "J"
   },
   "omm": {
    "OBJECT_NAME": "GOSAT-GW (IBUKI GW)",
    "OBJECT_ID": "2025-141A",
    "EPOCH": "2026-07-06T19:50:01.813632",
    "MEAN_MOTION": 14.6755387,
    "ECCENTRICITY": 0.0001412,
    "INCLINATION": 98.0566,
    "RA_OF_ASC_NODE": 124.8244,
    "ARG_OF_PERICENTER": 84.2116,
    "MEAN_ANOMALY": 275.925,
    "EPHEMERIS_TYPE": 0,
    "CLASSIFICATION_TYPE": "U",
    "NORAD_CAT_ID": 64694,
    "ELEMENT_SET_NO": 999,
    "REV_AT_EPOCH": 5472,
    "BSTAR": 0.00013735,
    "MEAN_MOTION_DOT": 0.00000731,
    "MEAN_MOTION_DDOT": 0
   }
  },
  {
   "norad": 39574,
   "name": "GPM-CORE",
   "intl": "2014-009C",
   "group": "resource",
   "gcat": {
    "class": "C",
    "category": "EOSCI",
    "owner": "GSFC",
    "state": "US"
   },
   "omm": {
    "OBJECT_NAME": "GPM-CORE",
    "OBJECT_ID": "2014-009C",
    "EPOCH": "2026-07-06T16:42:14.419872",
    "MEAN_MOTION": 15.44977181,
    "ECCENTRICITY": 0.0011131,
    "INCLINATION": 64.9704,
    "RA_OF_ASC_NODE": 242.7707,
    "ARG_OF_PERICENTER": 259.2531,
    "MEAN_ANOMALY": 100.7357,
    "EPHEMERIS_TYPE": 0,
    "CLASSIFICATION_TYPE": "U",
    "NORAD_CAT_ID": 39574,
    "ELEMENT_SET_NO": 999,
    "REV_AT_EPOCH": 70082,
    "BSTAR": 0.0001273,
    "MEAN_MOTION_DOT": 0.00005787,
    "MEAN_MOTION_DDOT": 0
   }
  },
  {
   "norad": 31113,
   "name": "HAIYANG-1B",
   "intl": "2007-010A",
   "group": "resource",
   "gcat": {
    "class": null,
    "category": null,
    "owner": null,
    "state": null
   },
   "omm": {
    "OBJECT_NAME": "HAIYANG-1B",
    "OBJECT_ID": "2007-010A",
    "EPOCH": "2026-07-06T20:41:40.443360",
    "MEAN_MOTION": 14.31031799,
    "ECCENTRICITY": 0.0014293,
    "INCLINATION": 98.3506,
    "RA_OF_ASC_NODE": 168.9453,
    "ARG_OF_PERICENTER": 138.8846,
    "MEAN_ANOMALY": 221.3418,
    "EPHEMERIS_TYPE": 0,
    "CLASSIFICATION_TYPE": "U",
    "NORAD_CAT_ID": 31113,
    "ELEMENT_SET_NO": 999,
    "REV_AT_EPOCH": 345,
    "BSTAR": 0.000046568,
    "MEAN_MOTION_DOT": 8.1e-7,
    "MEAN_MOTION_DDOT": 0
   }
  },
  {
   "norad": 37781,
   "name": "HAIYANG-2A",
   "intl": "2011-043A",
   "group": "resource",
   "gcat": {
    "class": null,
    "category": null,
    "owner": null,
    "state": null
   },
   "omm": {
    "OBJECT_NAME": "HAIYANG-2A",
    "OBJECT_ID": "2011-043A",
    "EPOCH": "2026-07-06T20:15:09.819360",
    "MEAN_MOTION": 13.73745547,
    "ECCENTRICITY": 0.0004015,
    "INCLINATION": 99.34,
    "RA_OF_ASC_NODE": 190.075,
    "ARG_OF_PERICENTER": 51.8244,
    "MEAN_ANOMALY": 308.3266,
    "EPHEMERIS_TYPE": 0,
    "CLASSIFICATION_TYPE": "U",
    "NORAD_CAT_ID": 37781,
    "ELEMENT_SET_NO": 999,
    "REV_AT_EPOCH": 74935,
    "BSTAR": -0.000064141,
    "MEAN_MOTION_DOT": -0.00000103,
    "MEAN_MOTION_DDOT": 0
   }
  }
 ]
}
